[{"OBJECT_NAME":"STARLINK-3544","OBJECT_ID":"2022-017AM","EPOCH":"2026-03-09T22:33:44.191584","MEAN_MOTION":15.08831422,"ECCENTRICITY":0.00012801,"INCLINATION":53.2177,"RA_OF_ASC_NODE":347.9976,"ARG_OF_PERICENTER":83.4068,"MEAN_ANOMALY":276.707,"EPHEMERIS_TYPE":0,"CLASSIFICATION_TYPE":"U","NORAD_CAT_ID":51803,"ELEMENT_SET_NO":999,"REV_AT_EPOCH":22395,"BSTAR":3.325911e-5,"MEAN_MOTION_DOT":2.41e-6,"MEAN_MOTION_DDOT":0},{"OBJECT_NAME":"COSMOS 1275 DEB","OBJECT_ID":"1981-053RH","EPOCH":"2026-03-08T19:02:02.535360","MEAN_MOTION":15.08606043,"ECCENTRICITY":0.00097404,"INCLINATION":83.3308,"RA_OF_ASC_NODE":196.5935,"ARG_OF_PERICENTER":282.896,"MEAN_ANOMALY":77.1182,"EPHEMERIS_TYPE":0,"CLASSIFICATION_TYPE":"U","NORAD_CAT_ID":42145,"ELEMENT_SET_NO":999,"REV_AT_EPOCH":64889,"BSTAR":0.0090120528,"MEAN_MOTION_DOT":0.00143721,"MEAN_MOTION_DDOT":0}]
